{
  "type": "FeatureCollection",
  "crs": {
    "type": "name",
    "properties": {
      "name": "urn:ogc:def:crs:OGC:1.3:CRS84"
    }
  },
  "features": [
    {
      "type": "Feature",
      "properties": {
        "id": "wayanad_meppadi",
        "name": "Meppadi",
        "district": "Wayanad",
        "state": "Kerala",
        "area_sq_km": 132.92,
        "terrain_type": "hilly_ghats",
        "osm_relation": 11312337,
        "admin_level": "9",
        "source": "OpenStreetMap contributors / ODbL",
        "osm_name": "Meppadi",
        "osm_name_en": "",
        "bbox": [
          76.0645723,
          11.451361,
          76.2002043,
          11.6240953
        ]
      },
      "geometry": {
        "type": "Polygon",
        "coordinates": [
          [
            [
              76.1957201,
              11.5013906
            ],
            [
              76.1954278,
              11.5011598
            ],
            [
              76.1951047,
              11.5008017
            ],
            [
              76.1947163,
              11.5003712
            ],
            [
              76.1939493,
              11.4998175
            ],
            [
              76.192899,
              11.4987197
            ],
            [
              76.1924958,
              11.4977728
            ],
            [
              76.1923783,
              11.4976469
            ],
            [
              76.1920611,
              11.4973073
            ],
            [
              76.1919297,
              11.4968491
            ],
            [
              76.1918476,
              11.4968077
            ],
            [
              76.1912602,
              11.4965115
            ],
            [
              76.1912444,
              11.4963971
            ],
            [
              76.1911804,
              11.4959343
            ],
            [
              76.1911381,
              11.4956288
            ],
            [
              76.1910404,
              11.4955891
            ],
            [
              76.1908255,
              11.4955016
            ],
            [
              76.1905815,
              11.4954024
            ],
            [
              76.1899714,
              11.4954389
            ],
            [
              76.1898934,
              11.4951943
            ],
            [
              76.189831,
              11.4949984
            ],
            [
              76.1886708,
              11.4945928
            ],
            [
              76.1899625,
              11.4931792
            ],
            [
              76.1895567,
              11.4926562
            ],
            [
              76.1888395,
              11.4920915
            ],
            [
              76.1882612,
              11.4917652
            ],
            [
              76.1876758,
              11.491432
            ],
            [
              76.1878664,
              11.4909526
            ],
            [
              76.1882958,
              11.4907642
            ],
            [
              76.1883587,
              11.4904556
            ],
            [
              76.1881339,
              11.4902772
            ],
            [
              76.1873433,
              11.4903368
            ],
            [
              76.1872141,
              11.4903465
            ],
            [
              76.186652,
              11.4897183
            ],
            [
              76.1865598,
              11.4897248
            ],
            [
              76.1862213,
              11.4897485
            ],
            [
              76.1859209,
              11.4897696
            ],
            [
              76.1856638,
              11.4894604
            ],
            [
              76.1857148,
              11.4891467
            ],
            [
              76.18577,
              11.4889923
            ],
            [
              76.1859355,
              11.4885298
            ],
            [
              76.1857564,
              11.4883359
            ],
            [
              76.1855199,
              11.4883124
            ],
            [
              76.1853356,
              11.4882941
            ],
            [
              76.1850109,
              11.4883728
            ],
            [
              76.185078,
              11.4881878
            ],
            [
              76.185209,
              11.4878268
            ],
            [
              76.1851528,
              11.4874024
            ],
            [
              76.1851371,
              11.4872839
            ],
            [
              76.185064,
              11.486762
            ],
            [
              76.1850489,
              11.4866538
            ],
            [
              76.1850692,
              11.4864208
            ],
            [
              76.1851066,
              11.4859914
            ],
            [
              76.1851146,
              11.4858996
            ],
            [
              76.1849527,
              11.4854997
            ],
            [
              76.1852839,
              11.4849542
            ],
            [
              76.1852393,
              11.4846921
            ],
            [
              76.1851458,
              11.4845743
            ],
            [
              76.1849531,
              11.4843317
            ],
            [
              76.1847802,
              11.4840407
            ],
            [
              76.1844594,
              11.4839189
            ],
            [
              76.1842674,
              11.4839668
            ],
            [
              76.1840487,
              11.4840214
            ],
            [
              76.1837825,
              11.4841227
            ],
            [
              76.1833196,
              11.4841843
            ],
            [
              76.183017,
              11.4843408
            ],
            [
              76.1828056,
              11.4843169
            ],
            [
              76.1825169,
              11.4841948
            ],
            [
              76.1823619,
              11.484166
            ],
            [
              76.1820288,
              11.483704
            ],
            [
              76.1820758,
              11.4833814
            ],
            [
              76.1829884,
              11.4824393
            ],
            [
              76.1842809,
              11.4812651
            ],
            [
              76.1859331,
              11.4791511
            ],
            [
              76.1865622,
              11.4776564
            ],
            [
              76.1862272,
              11.4756257
            ],
            [
              76.1852464,
              11.4752812
            ],
            [
              76.182909,
              11.4749611
            ],
            [
              76.1813862,
              11.4734686
            ],
            [
              76.1800072,
              11.4715408
            ],
            [
              76.1772859,
              11.4709391
            ],
            [
              76.1753372,
              11.4682765
            ],
            [
              76.1730414,
              11.4675475
            ],
            [
              76.171027,
              11.4671029
            ],
            [
              76.1690669,
              11.466241
            ],
            [
              76.1674098,
              11.4641372
            ],
            [
              76.1660294,
              11.4619796
            ],
            [
              76.1647056,
              11.4595866
            ],
            [
              76.1631384,
              11.4577747
            ],
            [
              76.1612941,
              11.4560103
            ],
            [
              76.1598267,
              11.4560097
            ],
            [
              76.1588996,
              11.4569795
            ],
            [
              76.1581636,
              11.4567775
            ],
            [
              76.1577365,
              11.4563803
            ],
            [
              76.1569291,
              11.4553921
            ],
            [
              76.1528967,
              11.4536689
            ],
            [
              76.1508818,
              11.4522716
            ],
            [
              76.1482461,
              11.4530083
            ],
            [
              76.1461959,
              11.4519238
            ],
            [
              76.1438473,
              11.4518731
            ],
            [
              76.1433419,
              11.451361
            ],
            [
              76.14215,
              11.4534062
            ],
            [
              76.1404134,
              11.4558702
            ],
            [
              76.1376807,
              11.4578861
            ],
            [
              76.1368756,
              11.4589025
            ],
            [
              76.1353748,
              11.4602459
            ],
            [
              76.1333485,
              11.4610441
            ],
            [
              76.1326097,
              11.4613946
            ],
            [
              76.1319774,
              11.4626505
            ],
            [
              76.1309493,
              11.4639639
            ],
            [
              76.1297648,
              11.4640184
            ],
            [
              76.1290684,
              11.4646363
            ],
            [
              76.1282034,
              11.4654039
            ],
            [
              76.1279252,
              11.4660456
            ],
            [
              76.1258906,
              11.4669274
            ],
            [
              76.1252723,
              11.4683058
            ],
            [
              76.1246663,
              11.469403
            ],
            [
              76.1245792,
              11.4711704
            ],
            [
              76.1241532,
              11.4736128
            ],
            [
              76.123249,
              11.4742238
            ],
            [
              76.122205,
              11.4749293
            ],
            [
              76.1189011,
              11.4762529
            ],
            [
              76.1163118,
              11.4761457
            ],
            [
              76.1147905,
              11.476615
            ],
            [
              76.1137219,
              11.4774702
            ],
            [
              76.1129881,
              11.4786969
            ],
            [
              76.1122993,
              11.4796318
            ],
            [
              76.111959,
              11.480347
            ],
            [
              76.1083891,
              11.4803708
            ],
            [
              76.1069544,
              11.4809994
            ],
            [
              76.106116,
              11.481919
            ],
            [
              76.1041226,
              11.4825232
            ],
            [
              76.1017877,
              11.4834768
            ],
            [
              76.0988964,
              11.4836015
            ],
            [
              76.0982622,
              11.4836179
            ],
            [
              76.0961236,
              11.4836731
            ],
            [
              76.0944965,
              11.4827145
            ],
            [
              76.0928136,
              11.4822646
            ],
            [
              76.0922046,
              11.481961
            ],
            [
              76.0912772,
              11.483091
            ],
            [
              76.0900528,
              11.485726
            ],
            [
              76.0896745,
              11.48654
            ],
            [
              76.0890555,
              11.4869219
            ],
            [
              76.0881369,
              11.487737
            ],
            [
              76.0884112,
              11.4892946
            ],
            [
              76.0892772,
              11.4905475
            ],
            [
              76.0899997,
              11.4913798
            ],
            [
              76.0909049,
              11.4923813
            ],
            [
              76.0923053,
              11.4931103
            ],
            [
              76.0914663,
              11.494193
            ],
            [
              76.0909625,
              11.4958451
            ],
            [
              76.0910518,
              11.4972149
            ],
            [
              76.0914754,
              11.4990087
            ],
            [
              76.0910319,
              11.5002775
            ],
            [
              76.0893871,
              11.5035585
            ],
            [
              76.0888762,
              11.5058554
            ],
            [
              76.0889002,
              11.5071722
            ],
            [
              76.0889275,
              11.5086692
            ],
            [
              76.0895923,
              11.5112304
            ],
            [
              76.0896399,
              11.5122716
            ],
            [
              76.0885279,
              11.5134645
            ],
            [
              76.0861861,
              11.5142801
            ],
            [
              76.0858443,
              11.5139176
            ],
            [
              76.0835683,
              11.5143585
            ],
            [
              76.0823421,
              11.5152217
            ],
            [
              76.082128,
              11.5171631
            ],
            [
              76.0812632,
              11.5192545
            ],
            [
              76.0771409,
              11.5241715
            ],
            [
              76.0773182,
              11.5246644
            ],
            [
              76.0774899,
              11.5252321
            ],
            [
              76.0796456,
              11.5298337
            ],
            [
              76.0804939,
              11.5312242
            ],
            [
              76.0818189,
              11.5334633
            ],
            [
              76.0818637,
              11.53607
            ],
            [
              76.0818671,
              11.53627
            ],
            [
              76.0810517,
              11.5384566
            ],
            [
              76.0786485,
              11.5416732
            ],
            [
              76.0765886,
              11.5431869
            ],
            [
              76.0746145,
              11.5445324
            ],
            [
              76.0704946,
              11.5462563
            ],
            [
              76.0675764,
              11.546887
            ],
            [
              76.0650014,
              11.5476439
            ],
            [
              76.0645723,
              11.550503
            ],
            [
              76.0653877,
              11.5539087
            ],
            [
              76.0664606,
              11.5574195
            ],
            [
              76.0664606,
              11.5610564
            ],
            [
              76.0665035,
              11.5638103
            ],
            [
              76.0666108,
              11.5693181
            ],
            [
              76.0671902,
              11.5703272
            ],
            [
              76.0683918,
              11.5713782
            ],
            [
              76.0690355,
              11.5716094
            ],
            [
              76.0696149,
              11.5725344
            ],
            [
              76.0701942,
              11.5739848
            ],
            [
              76.0758805,
              11.5736485
            ],
            [
              76.077286,
              11.5738797
            ],
            [
              76.0784232,
              11.5736065
            ],
            [
              76.0796356,
              11.5737115
            ],
            [
              76.0811806,
              11.5735854
            ],
            [
              76.082347,
              11.5734486
            ],
            [
              76.082704,
              11.5734067
            ],
            [
              76.0831868,
              11.5733017
            ],
            [
              76.0838627,
              11.5731965
            ],
            [
              76.0856866,
              11.5730073
            ],
            [
              76.0872593,
              11.5732
            ],
            [
              76.0877466,
              11.5732596
            ],
            [
              76.0903215,
              11.5745839
            ],
            [
              76.0919952,
              11.575656
            ],
            [
              76.0921562,
              11.5793873
            ],
            [
              76.0918001,
              11.5802062
            ],
            [
              76.0916626,
              11.5805224
            ],
            [
              76.0899996,
              11.5806276
            ],
            [
              76.0884869,
              11.5800494
            ],
            [
              76.0866737,
              11.579629
            ],
            [
              76.0851931,
              11.5803963
            ],
            [
              76.0847855,
              11.5818467
            ],
            [
              76.0848712,
              11.5832131
            ],
            [
              76.0851503,
              11.5847056
            ],
            [
              76.085987,
              11.5865764
            ],
            [
              76.0867167,
              11.5883211
            ],
            [
              76.0864592,
              11.5908855
            ],
            [
              76.0862416,
              11.5921937
            ],
            [
              76.0859871,
              11.5937233
            ],
            [
              76.0870814,
              11.5949214
            ],
            [
              76.0899997,
              11.5960775
            ],
            [
              76.0938192,
              11.5965189
            ],
            [
              76.0963512,
              11.5971915
            ],
            [
              76.0995269,
              11.5976749
            ],
            [
              76.1026058,
              11.5989754
            ],
            [
              76.1042047,
              11.5996508
            ],
            [
              76.1072731,
              11.6024043
            ],
            [
              76.1087537,
              11.6039177
            ],
            [
              76.1089346,
              11.6042917
            ],
            [
              76.109333,
              11.6051158
            ],
            [
              76.110642,
              11.6066291
            ],
            [
              76.1127448,
              11.6074699
            ],
            [
              76.1154699,
              11.608647
            ],
            [
              76.1160922,
              11.610938
            ],
            [
              76.1172938,
              11.6141748
            ],
            [
              76.1185598,
              11.6158142
            ],
            [
              76.1198902,
              11.6170333
            ],
            [
              76.1215732,
              11.6180875
            ],
            [
              76.1235165,
              11.619072
            ],
            [
              76.1255765,
              11.6199548
            ],
            [
              76.1276793,
              11.6208796
            ],
            [
              76.1295462,
              11.6218044
            ],
            [
              76.130898,
              11.6226451
            ],
            [
              76.1332261,
              11.6238536
            ],
            [
              76.1346638,
              11.6240953
            ],
            [
              76.1359941,
              11.6239376
            ],
            [
              76.1372816,
              11.6229813
            ],
            [
              76.1380219,
              11.6216362
            ],
            [
              76.1383223,
              11.620165
            ],
            [
              76.1382257,
              11.6192612
            ],
            [
              76.1382151,
              11.6173591
            ],
            [
              76.1381614,
              11.6167706
            ],
            [
              76.13873,
              11.615562
            ],
            [
              76.1391513,
              11.6149946
            ],
            [
              76.1398458,
              11.6140592
            ],
            [
              76.1413694,
              11.612672
            ],
            [
              76.1426836,
              11.6115476
            ],
            [
              76.1442876,
              11.6107698
            ],
            [
              76.1460257,
              11.6091725
            ],
            [
              76.1482465,
              11.6078588
            ],
            [
              76.1496734,
              11.6069759
            ],
            [
              76.1492872,
              11.6061667
            ],
            [
              76.1486435,
              11.6049476
            ],
            [
              76.1481285,
              11.6036024
            ],
            [
              76.1476135,
              11.6025094
            ],
            [
              76.1466264,
              11.6016266
            ],
            [
              76.1455106,
              11.6007858
            ],
            [
              76.1453731,
              11.6003967
            ],
            [
              76.1451244,
              11.5996928
            ],
            [
              76.1452102,
              11.5983896
            ],
            [
              76.1459398,
              11.5960775
            ],
            [
              76.1455535,
              11.5904021
            ],
            [
              76.1446202,
              11.587722
            ],
            [
              76.1443198,
              11.5873016
            ],
            [
              76.1437082,
              11.5868391
            ],
            [
              76.1430752,
              11.5863662
            ],
            [
              76.1432469,
              11.5857881
            ],
            [
              76.1436009,
              11.5853362
            ],
            [
              76.1441696,
              11.5852205
            ],
            [
              76.1447489,
              11.5851995
            ],
            [
              76.1450279,
              11.5847791
            ],
            [
              76.1447275,
              11.5840749
            ],
            [
              76.1441696,
              11.5834548
            ],
            [
              76.1434078,
              11.5827506
            ],
            [
              76.1419272,
              11.582099
            ],
            [
              76.1412513,
              11.5815419
            ],
            [
              76.1410689,
              11.580638
            ],
            [
              76.1407578,
              11.5798603
            ],
            [
              76.1403716,
              11.5785044
            ],
            [
              76.1400819,
              11.5767386
            ],
            [
              76.1402964,
              11.576108
            ],
            [
              76.1416912,
              11.5749308
            ],
            [
              76.1425495,
              11.5744053
            ],
            [
              76.1438155,
              11.57306
            ],
            [
              76.1437404,
              11.5717776
            ],
            [
              76.1430323,
              11.5707266
            ],
            [
              76.1431289,
              11.5699908
            ],
            [
              76.1432791,
              11.5693391
            ],
            [
              76.143837,
              11.568309
            ],
            [
              76.1442304,
              11.567759
            ],
            [
              76.1447918,
              11.5669742
            ],
            [
              76.1446845,
              11.5642203
            ],
            [
              76.1444485,
              11.5623703
            ],
            [
              76.144309,
              11.5607831
            ],
            [
              76.1450064,
              11.5598266
            ],
            [
              76.1449528,
              11.5576403
            ],
            [
              76.1444914,
              11.5562003
            ],
            [
              76.143673,
              11.5553635
            ],
            [
              76.1432576,
              11.5549389
            ],
            [
              76.1410796,
              11.5534568
            ],
            [
              76.1389767,
              11.5521428
            ],
            [
              76.1382258,
              11.5513124
            ],
            [
              76.1379361,
              11.5509866
            ],
            [
              76.1389876,
              11.5499669
            ],
            [
              76.1390583,
              11.5499025
            ],
            [
              76.1400497,
              11.5489999
            ],
            [
              76.1405754,
              11.5474967
            ],
            [
              76.1408329,
              11.5459094
            ],
            [
              76.1408222,
              11.5446901
            ],
            [
              76.1407742,
              11.5443837
            ],
            [
              76.1405754,
              11.5431133
            ],
            [
              76.1409509,
              11.5390136
            ],
            [
              76.1411118,
              11.5384039
            ],
            [
              76.1426997,
              11.5364171
            ],
            [
              76.1437296,
              11.5347773
            ],
            [
              76.145103,
              11.5327169
            ],
            [
              76.1457359,
              11.5316552
            ],
            [
              76.147399,
              11.5312767
            ],
            [
              76.1490297,
              11.5317182
            ],
            [
              76.1508321,
              11.5326013
            ],
            [
              76.1512935,
              11.5317182
            ],
            [
              76.1511003,
              11.5305093
            ],
            [
              76.1509824,
              11.5301624
            ],
            [
              76.1510038,
              11.5292058
            ],
            [
              76.1513257,
              11.5277761
            ],
            [
              76.1539221,
              11.5258418
            ],
            [
              76.1549367,
              11.5251057
            ],
            [
              76.156733,
              11.5238024
            ],
            [
              76.1582994,
              11.5225619
            ],
            [
              76.1602306,
              11.5219732
            ],
            [
              76.1616039,
              11.5212373
            ],
            [
              76.1636638,
              11.5202912
            ],
            [
              76.1646202,
              11.5196123
            ],
            [
              76.1657667,
              11.5187984
            ],
            [
              76.1666809,
              11.5181159
            ],
            [
              76.1702728,
              11.5154343
            ],
            [
              76.1778259,
              11.5116286
            ],
            [
              76.1793279,
              11.5124906
            ],
            [
              76.181066,
              11.5132476
            ],
            [
              76.1825251,
              11.5132265
            ],
            [
              76.1841559,
              11.511986
            ],
            [
              76.1857974,
              11.510756
            ],
            [
              76.1861086,
              11.5104091
            ],
            [
              76.188147,
              11.5088952
            ],
            [
              76.1909365,
              11.5076546
            ],
            [
              76.193726,
              11.5065823
            ],
            [
              76.1961293,
              11.5073813
            ],
            [
              76.1976099,
              11.5076336
            ],
            [
              76.1990261,
              11.5076126
            ],
            [
              76.2002043,
              11.5070095
            ],
            [
              76.1996535,
              11.5064236
            ],
            [
              76.1992788,
              11.506025
            ],
            [
              76.1982129,
              11.504891
            ],
            [
              76.1979968,
              11.5047071
            ],
            [
              76.1977236,
              11.5044746
            ],
            [
              76.1970325,
              11.5038864
            ],
            [
              76.197034,
              11.5034615
            ],
            [
              76.1970382,
              11.5022204
            ],
            [
              76.1967058,
              11.5020406
            ],
            [
              76.1965143,
              11.5019371
            ],
            [
              76.1961896,
              11.5017615
            ],
            [
              76.1960907,
              11.5016834
            ],
            [
              76.1957201,
              11.5013906
            ]
          ]
        ]
      }
    }
  ]
}